HTV-X1                  
1 66174U 25241A   26073.34423281  .00013297  00000+0  57208-3 0  9999
2 66174  51.6357  50.7100 0005738 187.3558 172.7336 15.22910164 21661
SHENZHOU-22             
1 66645U 25272A   26077.67299090  .00021288  00000+0  24802-3 0  9998
2 66645  41.4668 153.4828 0005990 328.6686  31.3796 15.61143660279012
SOYUZ-MS 28             
1 66664U 25275A   26077.80687811  .00008636  00000+0  16833-3 0  9996
2 66664  51.6341  27.2872 0006207 206.1038 153.9638 15.48363739557789
DUPLEX                  
1 66906U 98067XS  26076.93265565  .00024045  00000+0  33549-3 0  9990
2 66906  51.6300  28.2024 0002916 147.7236 212.3935 15.56752750 16410
ISS OBJECT XT           
1 66907U 98067XT  26077.87105253  .00143640  00000+0  10467-2 0  9998
2 66907  51.6257  18.6958 0005063 139.9033 220.2340 15.72318687 16621
ISS OBJECT XU           
1 66908U 98067XU  26077.86845307  .00145523  00000+0  10537-2 0  9999
2 66908  51.6251  18.6746 0005280 140.3793 219.7592 15.72460986 16623
SILVERSAT               
1 66909U 98067XV  26077.85033428  .00189074  00000+0  11558-2 0  9995
2 66909  51.6239  17.7985 0005701 142.9874 217.1520 15.76234820 16635
ISS OBJECT XW           
1 66910U 98067XW  26077.87066409  .00128673  00000+0  97863-3 0  9996
2 66910  51.6247  18.6849 0005650 141.8774 218.2624 15.71355708 16625
ISS OBJECT XX           
1 66911U 98067XX  26077.06683133  .00252305  00000+0  12796-2 0  9998
2 66911  51.6212  20.7915 0007243 141.9689 218.1825 15.80205228 16513
ISS OBJECT XY           
1 66912U 98067XY  26077.84290355  .00079940  00000+0  78098-3 0  9995
2 66912  51.6283  20.7732 0003666 143.9964 216.1278 15.65459875 16581
KNACKSAT-2              
1 67683U 98067XZ  26077.86971023  .00032016  00000+0  51634-3 0  9991
2 67683  51.6321  26.2087 0009739 218.1949 141.8351 15.52570759  6215
