CCSDS_OMM_VERS = 2.0
CREATION_DATE  = 
ORIGINATOR     = 

OBJECT_NAME    = HTV-X1
OBJECT_ID      = 2025-241A
CENTER_NAME    = EARTH
REF_FRAME      = TEME
TIME_SYSTEM    = UTC
MEAN_ELEMENT_THEORY = SGP/SGP4

EPOCH          = 2026-03-14T08:15:41.714784
MEAN_MOTION    = 15.22910164
ECCENTRICITY   = .00057383
INCLINATION    = 51.6357
RA_OF_ASC_NODE = 50.7100
ARG_OF_PERICENTER = 187.3558
MEAN_ANOMALY   = 172.7336

EPHEMERIS_TYPE = 0
CLASSIFICATION_TYPE = U
NORAD_CAT_ID   = 66174
ELEMENT_SET_NO = 999
REV_AT_EPOCH   = 2166
BSTAR          = .57208053E-3
MEAN_MOTION_DOT = .13297E-3
MEAN_MOTION_DDOT = 0

CCSDS_OMM_VERS = 2.0
CREATION_DATE  = 
ORIGINATOR     = 

OBJECT_NAME    = SHENZHOU-22
OBJECT_ID      = 2025-272A
CENTER_NAME    = EARTH
REF_FRAME      = TEME
TIME_SYSTEM    = UTC
MEAN_ELEMENT_THEORY = SGP/SGP4

EPOCH          = 2026-03-18T16:09:06.413760
MEAN_MOTION    = 15.61143660
ECCENTRICITY   = .000599
INCLINATION    = 41.4668
RA_OF_ASC_NODE = 153.4828
ARG_OF_PERICENTER = 328.6686
MEAN_ANOMALY   = 31.3796

EPHEMERIS_TYPE = 0
CLASSIFICATION_TYPE = U
NORAD_CAT_ID   = 66645
ELEMENT_SET_NO = 999
REV_AT_EPOCH   = 27901
BSTAR          = .24802E-3
MEAN_MOTION_DOT = .21288E-3
MEAN_MOTION_DDOT = 0

CCSDS_OMM_VERS = 2.0
CREATION_DATE  = 
ORIGINATOR     = 

OBJECT_NAME    = SOYUZ-MS 28
OBJECT_ID      = 2025-275A
CENTER_NAME    = EARTH
REF_FRAME      = TEME
TIME_SYSTEM    = UTC
MEAN_ELEMENT_THEORY = SGP/SGP4

EPOCH          = 2026-03-18T19:21:54.268704
MEAN_MOTION    = 15.48363739
ECCENTRICITY   = .0006207
INCLINATION    = 51.6341
RA_OF_ASC_NODE = 27.2872
ARG_OF_PERICENTER = 206.1038
MEAN_ANOMALY   = 153.9638

EPHEMERIS_TYPE = 0
CLASSIFICATION_TYPE = U
NORAD_CAT_ID   = 66664
ELEMENT_SET_NO = 999
REV_AT_EPOCH   = 55778
BSTAR          = .16833E-3
MEAN_MOTION_DOT = .8636E-4
MEAN_MOTION_DDOT = 0

CCSDS_OMM_VERS = 2.0
CREATION_DATE  = 
ORIGINATOR     = 

OBJECT_NAME    = DUPLEX
OBJECT_ID      = 1998-067XS
CENTER_NAME    = EARTH
REF_FRAME      = TEME
TIME_SYSTEM    = UTC
MEAN_ELEMENT_THEORY = SGP/SGP4

EPOCH          = 2026-03-17T22:23:01.448160
MEAN_MOTION    = 15.56752750
ECCENTRICITY   = .00029165
INCLINATION    = 51.6300
RA_OF_ASC_NODE = 28.2024
ARG_OF_PERICENTER = 147.7236
MEAN_ANOMALY   = 212.3935

EPHEMERIS_TYPE = 0
CLASSIFICATION_TYPE = U
NORAD_CAT_ID   = 66906
ELEMENT_SET_NO = 999
REV_AT_EPOCH   = 1641
BSTAR          = .33548582E-3
MEAN_MOTION_DOT = .24045E-3
MEAN_MOTION_DDOT = 0

CCSDS_OMM_VERS = 2.0
CREATION_DATE  = 
ORIGINATOR     = 

OBJECT_NAME    = ISS OBJECT XT
OBJECT_ID      = 1998-067XT
CENTER_NAME    = EARTH
REF_FRAME      = TEME
TIME_SYSTEM    = UTC
MEAN_ELEMENT_THEORY = SGP/SGP4

EPOCH          = 2026-03-18T20:54:18.938592
MEAN_MOTION    = 15.72318687
ECCENTRICITY   = .0005063
INCLINATION    = 51.6257
RA_OF_ASC_NODE = 18.6958
ARG_OF_PERICENTER = 139.9033
MEAN_ANOMALY   = 220.2340

EPHEMERIS_TYPE = 0
CLASSIFICATION_TYPE = U
NORAD_CAT_ID   = 66907
ELEMENT_SET_NO = 999
REV_AT_EPOCH   = 1662
BSTAR          = .10467E-2
MEAN_MOTION_DOT = .14364E-2
MEAN_MOTION_DDOT = 0

CCSDS_OMM_VERS = 2.0
CREATION_DATE  = 
ORIGINATOR     = 

OBJECT_NAME    = ISS OBJECT XU
OBJECT_ID      = 1998-067XU
CENTER_NAME    = EARTH
REF_FRAME      = TEME
TIME_SYSTEM    = UTC
MEAN_ELEMENT_THEORY = SGP/SGP4

EPOCH          = 2026-03-18T20:50:34.345248
MEAN_MOTION    = 15.72460986
ECCENTRICITY   = .000528
INCLINATION    = 51.6251
RA_OF_ASC_NODE = 18.6746
ARG_OF_PERICENTER = 140.3793
MEAN_ANOMALY   = 219.7592

EPHEMERIS_TYPE = 0
CLASSIFICATION_TYPE = U
NORAD_CAT_ID   = 66908
ELEMENT_SET_NO = 999
REV_AT_EPOCH   = 1662
BSTAR          = .10537E-2
MEAN_MOTION_DOT = .145523E-2
MEAN_MOTION_DDOT = 0

CCSDS_OMM_VERS = 2.0
CREATION_DATE  = 
ORIGINATOR     = 

OBJECT_NAME    = SILVERSAT
OBJECT_ID      = 1998-067XV
CENTER_NAME    = EARTH
REF_FRAME      = TEME
TIME_SYSTEM    = UTC
MEAN_ELEMENT_THEORY = SGP/SGP4

EPOCH          = 2026-03-18T20:24:28.881792
MEAN_MOTION    = 15.76234820
ECCENTRICITY   = .0005701
INCLINATION    = 51.6239
RA_OF_ASC_NODE = 17.7985
ARG_OF_PERICENTER = 142.9874
MEAN_ANOMALY   = 217.1520

EPHEMERIS_TYPE = 0
CLASSIFICATION_TYPE = U
NORAD_CAT_ID   = 66909
ELEMENT_SET_NO = 999
REV_AT_EPOCH   = 1663
BSTAR          = .11558E-2
MEAN_MOTION_DOT = .189074E-2
MEAN_MOTION_DDOT = 0

CCSDS_OMM_VERS = 2.0
CREATION_DATE  = 
ORIGINATOR     = 

OBJECT_NAME    = ISS OBJECT XW
OBJECT_ID      = 1998-067XW
CENTER_NAME    = EARTH
REF_FRAME      = TEME
TIME_SYSTEM    = UTC
MEAN_ELEMENT_THEORY = SGP/SGP4

EPOCH          = 2026-03-18T20:53:45.377376
MEAN_MOTION    = 15.71355708
ECCENTRICITY   = .000565
INCLINATION    = 51.6247
RA_OF_ASC_NODE = 18.6849
ARG_OF_PERICENTER = 141.8774
MEAN_ANOMALY   = 218.2624

EPHEMERIS_TYPE = 0
CLASSIFICATION_TYPE = U
NORAD_CAT_ID   = 66910
ELEMENT_SET_NO = 999
REV_AT_EPOCH   = 1662
BSTAR          = .97863E-3
MEAN_MOTION_DOT = .128673E-2
MEAN_MOTION_DDOT = 0

CCSDS_OMM_VERS = 2.0
CREATION_DATE  = 
ORIGINATOR     = 

OBJECT_NAME    = ISS OBJECT XX
OBJECT_ID      = 1998-067XX
CENTER_NAME    = EARTH
REF_FRAME      = TEME
TIME_SYSTEM    = UTC
MEAN_ELEMENT_THEORY = SGP/SGP4

EPOCH          = 2026-03-18T01:36:14.226912
MEAN_MOTION    = 15.80205228
ECCENTRICITY   = .00072437
INCLINATION    = 51.6212
RA_OF_ASC_NODE = 20.7915
ARG_OF_PERICENTER = 141.9689
MEAN_ANOMALY   = 218.1825

EPHEMERIS_TYPE = 0
CLASSIFICATION_TYPE = U
NORAD_CAT_ID   = 66911
ELEMENT_SET_NO = 999
REV_AT_EPOCH   = 1651
BSTAR          = .12795822E-2
MEAN_MOTION_DOT = .252305E-2
MEAN_MOTION_DDOT = 0

CCSDS_OMM_VERS = 2.0
CREATION_DATE  = 
ORIGINATOR     = 

OBJECT_NAME    = ISS OBJECT XY
OBJECT_ID      = 1998-067XY
CENTER_NAME    = EARTH
REF_FRAME      = TEME
TIME_SYSTEM    = UTC
MEAN_ELEMENT_THEORY = SGP/SGP4

EPOCH          = 2026-03-18T20:13:46.866720
MEAN_MOTION    = 15.65459875
ECCENTRICITY   = .0003666
INCLINATION    = 51.6283
RA_OF_ASC_NODE = 20.7732
ARG_OF_PERICENTER = 143.9964
MEAN_ANOMALY   = 216.1278

EPHEMERIS_TYPE = 0
CLASSIFICATION_TYPE = U
NORAD_CAT_ID   = 66912
ELEMENT_SET_NO = 999
REV_AT_EPOCH   = 1658
BSTAR          = .78098E-3
MEAN_MOTION_DOT = .7994E-3
MEAN_MOTION_DDOT = 0

CCSDS_OMM_VERS = 2.0
CREATION_DATE  = 
ORIGINATOR     = 

OBJECT_NAME    = KNACKSAT-2
OBJECT_ID      = 1998-067XZ
CENTER_NAME    = EARTH
REF_FRAME      = TEME
TIME_SYSTEM    = UTC
MEAN_ELEMENT_THEORY = SGP/SGP4

EPOCH          = 2026-03-18T20:52:22.963872
MEAN_MOTION    = 15.52570759
ECCENTRICITY   = .0009739
INCLINATION    = 51.6321
RA_OF_ASC_NODE = 26.2087
ARG_OF_PERICENTER = 218.1949
MEAN_ANOMALY   = 141.8351

EPHEMERIS_TYPE = 0
CLASSIFICATION_TYPE = U
NORAD_CAT_ID   = 67683
ELEMENT_SET_NO = 999
REV_AT_EPOCH   = 621
BSTAR          = .51634E-3
MEAN_MOTION_DOT = .32016E-3
MEAN_MOTION_DDOT = 0

